COSMOS 2544 (759)       
1 44850U 19088A   24275.38133060  .00000055  00000+0  00000+0 0  9999
2 44850  65.2382  94.6029 0011494 247.1761 112.7538  2.13102164 37429
COSMOS 2545 (760)       
1 45358U 20018A   24276.04742678 -.00000057  00000+0  00000+0 0  9996
2 45358  64.6972 334.2374 0011697 241.0709 118.8861  2.13102635 35389
COSMOS 2547 (705K)      
1 46805U 20075A   24275.29548184 -.00000020  00000+0  00000+0 0  9999
2 46805  64.5994 213.3180 0007890 240.3304 119.5762  2.13102819 30618
COSMOS 2557 (706K)      
1 52984U 22075A   24274.99203502 -.00000063  00000+0  00000+0 0  9991
2 52984  64.6271 336.3944 0013128 273.5194  86.4014  2.13102330 17415
COSMOS 2559 (707K)      
1 54031U 22130A   24274.93527065 -.00000063  00000+0  00000+0 0  9995
2 54031  64.5993 336.5105 0008185 223.9346 136.0707  2.13101621 15383
COSMOS 2564 (761)       
1 54377U 22161A   24275.59486943 -.00000016  00000+0  00000+0 0  9992
2 54377  64.7408 213.4319 0010140 221.3953 138.5138  2.13102177 14346
COSMOS 2569 (703K)      
1 57517U 23114A   24275.14226218  .00000055  00000+0  00000+0 0  9990
2 57517  64.9658  93.7222 0008588 293.8227  66.1379  2.13104054  8967
GPS BIIR-2  (PRN 13)    
1 24876U 97035A   24275.47560351  .00000056  00000+0  00000+0 0  9991
2 24876  55.7032 122.9752 0084751  54.3592 306.5248  2.00561399199442
GPS BIIR-4  (PRN 20)    
1 26360U 00025A   24276.08690184 -.00000073  00000+0  00000+0 0  9990
2 26360  54.7527  44.5317 0039404 217.9343 312.2885  2.00571377178762
GPS BIIR-5  (PRN 22)    
1 26407U 00040A   24275.31844058 -.00000024  00000+0  00000+0 0  9991
2 26407  55.0286 239.9606 0142305 296.0646 237.8882  2.00561732177436
GPS BIIR-8  (PRN 16)    
1 27663U 03005A   24275.89547242 -.00000020  00000+0  00000+0 0  9994
2 27663  55.0660 239.7489 0138424  47.7950 322.7307  2.00568799158817
GPS BIIR-9  (PRN 21)    
1 27704U 03010A   24275.61001163 -.00000100  00000+0  00000+0 0  9992
2 27704  55.0743 349.4968 0255162 330.0801  49.8835  2.00566954157608
GPS BIIR-11 (PRN 19)    
1 28190U 04009A   24275.22435815 -.00000034  00000+0  00000+0 0  9999
2 28190  55.3633 300.7998 0098892 153.4151 246.1856  2.00556186150460
GPS BIIR-13 (PRN 02)    
1 28474U 04045A   24275.82597340 -.00000099  00000+0  00000+0 0  9993
2 28474  55.4039 349.9433 0164272 295.1349 225.6015  2.00562497145920
GPS BIIRM-1 (PRN 17)    
1 28874U 05038A   24275.38810061 -.00000032  00000+0  00000+0 0  9996
2 28874  55.4087 298.2579 0137396 285.7447 255.2025  2.00578316139329
GPS BIIRM-2 (PRN 31)    
1 29486U 06042A   24275.79418454  .00000007  00000+0  00000+0 0  9998
2 29486  54.6756 176.0652 0104677  41.6301 332.8979  2.00574626131896
GPS BIIRM-3 (PRN 12)    
1 29601U 06052A   24275.19382201 -.00000025  00000+0  00000+0 0  9993
2 29601  55.0998 238.7620 0084882  83.6441 277.2894  2.00573551130898
GPS BIIRM-4 (PRN 15)    
1 32260U 07047A   24275.50017101  .00000042  00000+0  00000+0 0  9990
2 32260  53.6651 105.8442 0159136  77.7865 284.0681  2.00559148124303
GPS BIIRM-5 (PRN 29)    
1 32384U 07062A   24275.56074767 -.00000033  00000+0  00000+0 0  9992
2 32384  55.5502 299.1292 0028149 157.6822  15.4294  2.00553290123000
GPS BIIRM-6 (PRN 07)    
1 32711U 08012A   24275.41528907  .00000003  00000+0  00000+0 0  9992
2 32711  54.4497 174.8167 0189523 240.0662 118.0944  2.00571212121248
GPS BIIRM-8 (PRN 05)    
1 35752U 09043A   24275.40139012 -.00000057  00000+0  00000+0 0  9999
2 35752  55.7634  52.0664 0056199  75.7320 288.2687  2.00563336110855
GPS BIIF-1  (PRN 25)    
1 36585U 10022A   24275.29332373 -.00000027  00000+0  00000+0 0  9992
2 36585  54.4138 233.7165 0116259  62.0844 341.3152  2.00556931105083
GPS BIIF-3  (PRN 24)    
1 38833U 12053A   24276.09647464  .00000017  00000+0  00000+0 0  9993
2 38833  53.5177 169.1020 0158267  57.6603 303.9334  2.00560321 87830
GPS BIIF-4  (PRN 27)    
1 39166U 13023A   24275.46000078 -.00000029  00000+0  00000+0 0  9999
2 39166  55.0220 294.2930 0124713  44.9506 316.0976  2.00562589 83376
GPS BIIF-5  (PRN 30)    
1 39533U 14008A   24275.45521062  .00000003  00000+0  00000+0 0  9992
2 39533  53.5992 174.7412 0073150 221.0612 138.4416  2.00574636 77176
GPS BIIF-6  (PRN 06)    
1 39741U 14026A   24275.73779847 -.00000102  00000+0  00000+0 0  9991
2 39741  56.6993 355.7415 0032556 313.0757  46.6990  2.00560812 76024
GPS BIIF-7  (PRN 09)    
1 40105U 14045A   24274.83005354  .00000051  00000+0  00000+0 0  9995
2 40105  54.9783 113.3856 0029365 115.7476 244.6418  2.00573587 73557
GPS BIIF-8  (PRN 03)    
1 40294U 14068A   24275.70393930 -.00000049  00000+0  00000+0 0  9994
2 40294  56.5139  55.0907 0055022  65.6186 294.9508  2.00566768 72705
GPS BIIF-9  (PRN 26)    
1 40534U 15013A   24275.83397041 -.00000025  00000+0  00000+0 0  9997
2 40534  53.3113 229.9785 0091805  30.8353 329.6657  2.00559270 69329
GPS BIIF-10 (PRN 08)    
1 40730U 15033A   24275.49711624 -.00000029  00000+0  00000+0 0  9990
2 40730  54.5042 292.7122 0096350  19.8345 340.5790  2.00561714 67483
GPS BIIF-11 (PRN 10)    
1 41019U 15062A   24275.05896052 -.00000048  00000+0  00000+0 0  9995
2 41019  56.4927  54.9700 0099060 224.8028 134.3938  2.00562830 65317
GPS BIIF-12 (PRN 32)    
1 41328U 16007A   24275.63915290  .00000052  00000+0  00000+0 0  9992
2 41328  55.1707 114.2193 0080742 238.4270 120.8666  2.00556726 63374
GPS BIII-1  (PRN 04)    
1 43873U 18109A   24275.80515856  .00000054  00000+0  00000+0 0  9999
2 43873  55.3394 116.8131 0030876 191.8007 179.2728  2.00560472 42577
GPS BIII-2  (PRN 18)    
1 44506U 19056A   24275.65923766 -.00000104  00000+0  00000+0 0  9998
2 44506  55.8323 355.8743 0047677 191.6078 339.4890  2.00557209 37562
GPS BIII-3  (PRN 23)    
1 45854U 20041A   24275.75396622 -.00000054  00000+0  00000+0 0  9991
2 45854  56.2143  53.2469 0047993 194.2329 341.1615  2.00571428 31532
GPS BIII-4  (PRN 14)    
1 46826U 20078A   24275.28227576 -.00000027  00000+0  00000+0 0  9990
2 46826  54.1445 236.0980 0049797 199.0241 331.0239  2.00560563 28997
GPS BIII-5  (PRN 11)    
1 48859U 21054A   24275.26250743 -.00000107  00000+0  00000+0 0  9992
2 48859  55.3596 357.4927 0018865 222.0268 115.6610  2.00552141 24237
GPS BIII-6  (PRN 28)    
1 55268U 23009A   24275.47186969  .00000007  00000+0  00000+0 0  9995
2 55268  55.0840 173.0022 0001932  67.3876 106.6551  2.00557319 12736
SCD 1                   
1 22490U 93009B   24275.91424819  .00001312  00000+0  31156-3 0  9991
2 22490  24.9691  94.4061 0042511  24.0671 127.3922 14.45470185670814
TECHSAT 1B (GO-32)      
1 25397U 98043D   24275.89161108  .00000507  00000+0  24038-3 0  9995
2 25397  98.9360 244.2777 0001142 157.0745 203.0484 14.24137105362609
SCD 2                   
1 25504U 98060A   24275.80999647  .00001147  00000+0  27214-3 0  9992
2 25504  24.9961 315.1925 0016970  18.6701 142.3870 14.44946179370049
DLR-TUBSAT              
1 25757U 99029B   24276.18592583  .00000731  00000+0  19232-3 0  9997
2 25757  98.6005 242.5490 0015584  85.8598 274.4378 14.52023876342921
TERRA                   
1 25994U 99068A   24276.13739427  .00002000  00000+0  42587-3 0  9998
2 25994  98.0371 336.4403 0003119  53.5803 335.7046 14.60036546318779
MAROC-TUBSAT            
1 27004U 01056D   24275.88924675  .00000020  00000+0  75332-4 0  9999
2 27004  99.7489  71.6378 0019151 301.3718 215.7257 13.70217796140820
AQUA                    
1 27424U 02022A   24276.18754891  .00005963  00000+0  12520-2 0  9993
2 27424  98.3406 226.0498 0002092  96.6456  27.4105 14.59988897192325
IRS-P6 (RESOURCESAT-1)  
1 28051U 03046A   24276.14921240  .00001134  00000+0  39739-3 0  9995
2 28051  98.2821 329.2950 0065592  50.1389 333.5006 14.35659076 91142
SHIYAN 1 (SY-1)         
1 28220U 04012A   24276.06332913  .00020694  00000+0  11161-2 0  9991
2 28220  97.9563 308.5155 0009495  38.1436 322.0465 15.14763466116333
AURA                    
1 28376U 04026A   24275.81761466  .00004122  00000+0  88365-3 0  9998
2 28376  98.2592 219.9884 0002550  87.8233 272.3258 14.59202765 75223
IRS-P5 (CARTOSAT-1)     
1 28649U 05017A   24276.11192017  .00005338  00000+0  58978-3 0  9993
2 28649  97.6033 315.1543 0001325  50.1243 310.0090 14.87812467 51127
SINAH 1                 
1 28893U 05043D   24275.89759992  .00002011  00000+0  40054-3 0  9999
2 28893  98.2076  39.0346 0015816  70.9113 289.3799 14.63059344  9343
EROS B                  
1 29079U 06014A   24276.13747818  .00046303  00000+0  23240-2 0  9996
2 29079  97.3398  26.9512 0008017 215.8770 144.1926 15.17120578 23750
RESURS-DK 1             
1 29228U 06021A   24275.83185906  .00006623  00000+0  43185-3 0  9992
2 29228  69.9348 148.0365 0006659 230.1413 129.9165 15.08328719  8400
ARIRANG-2 (KOMPSAT-2)   
1 29268U 06031A   24276.18443876  .00001877  00000+0  36798-3 0  9997
2 29268  97.8532 119.5306 0013343 247.7520 230.2287 14.63798986970392
LAPAN-TUBSAT            
1 29709U 07001A   24276.13550956  .00003866  00000+0  46556-3 0  9991
2 29709  98.0818 252.6332 0013834  57.4976 302.7573 14.84420749958678
HAIYANG-1B              
1 31113U 07010A   24275.89233782  .00000542  00000+0  22290-3 0  9997
2 31113  98.3015 273.0831 0012375 247.9198 112.0671 14.30702106911495
COSMO-SKYMED 1          
1 31598U 07023A   24276.14008205  .00003088  00000+0  39440-3 0  9990
2 31598  97.8888  97.7394 0001399  84.4468 275.6904 14.82139977937048
TERRASAR-X              
1 31698U 07026A   24275.02403892  .00006247  00000+0  30038-3 0  9995
2 31698  97.4461 280.6795 0001986  89.7559 270.3903 15.19155049958460
WORLDVIEW-1 (WV-1)      
1 32060U 07041A   24275.88070392  .00024986  00000+0  10021-2 0  9994
2 32060  97.3871  33.6182 0008916 239.5966 120.4391 15.24952990947977
YAOGAN-3                
1 32289U 07055A   24276.16397876  .00009557  00000+0  10911-2 0  9998
2 32289  97.8814 300.4889 0001415  85.3742 274.7635 14.86286718913216
